STARLINK-6227
1 57060U 23088N   26090.83335647  .00818313  00000+0  32164-1 0  9995
2 57060  42.9997 345.9121 0001167 278.8829 140.6913 15.22677414  5811
